ONEWEB-0201             
1 48241U 21031AH  24027.11734048  .00000305  00000+0  78904-3 0  9997
2 48241  87.8966 103.3076 0001697  97.4493 262.6830 13.14504947133815
ONEWEB-0207             
1 48242U 21031AJ  24027.17283873 -.00000001  00000+0 -37838-4 0  9996
2 48242  87.8962 103.2647 0001520 105.2708 254.8590 13.14505292133738
ONEWEB-0208             
1 48243U 21031AK  24026.24119382 -.00000145  00000+0 -42624-3 0  9994
2 48243  87.8963 103.4653 0001793  94.9906 265.1429 13.14503287133621
ONEWEB-0200             
1 48244U 21031AL  24026.73754683 -.00002975  00000+0 -80594-2 0  9998
2 48244  87.8962 103.3655 0002180  99.4610 260.6766 13.14520040133625
ONEWEB-0217             
1 48245U 21031AM  24026.60117223  .00000052  00000+0  10692-3 0  9993
2 48245  87.8964 103.3777 0001930  88.7890 271.3460 13.14501122133547
ONEWEB-0211             
1 48767U 21045A   24026.56535161  .00000194  00000+0  48149-3 0  9992
2 48767  87.8961  72.8786 0001856  98.1906 261.9435 13.15549026129686
ONEWEB-0223             
1 48768U 21045B   24026.66359330  .00000150  00000+0  36550-3 0  9991
2 48768  87.8965  72.8611 0002622  95.8381 264.3048 13.15548170130825
ONEWEB-0230             
1 48769U 21045C   24026.55900141 -.00000563  00000+0 -15297-2 0  9996
2 48769  87.8963  72.9550 0002004 103.6499 256.4854 13.15547340129934
ONEWEB-0237             
1 48770U 21045D   24026.54792223 -.00000044  00000+0 -15121-3 0  9998
2 48770  87.8967  72.8789 0002318  92.6102 267.5294 13.15548746129650
ONEWEB-0235             
1 48771U 21045E   24026.67468034 -.00000033  00000+0 -12055-3 0  9994
2 48771  87.8962  72.8757 0002688 100.5164 259.6269 13.15549172130782
ONEWEB-0242             
1 48772U 21045F   24026.59228836  .00000062  00000+0  12948-3 0  9991
2 48772  87.8960  72.8816 0002060 100.7495 259.3867 13.15549128129690
ONEWEB-0241             
1 48773U 21045G   24026.57961392  .00000190  00000+0  47049-3 0  9993
2 48773  87.8969  72.9178 0002210  87.3807 272.7576 13.15549038129603
ONEWEB-0243             
1 48774U 21045H   24026.61129108 -.00000077  00000+0 -23829-3 0  9996
2 48774  87.8972  72.8691 0002414 106.3071 253.8324 13.15550117129632
ONEWEB-0222             
1 48775U 21045J   24027.13415230  .00000095  00000+0  21914-3 0  9990
2 48775  87.8959  72.7872 0002272  91.6710 268.4681 13.15568208130861
ONEWEB-0244             
1 48776U 21045K   24026.62080299 -.00000044  00000+0 -15070-3 0  9999
2 48776  87.8957  72.8715 0002023 108.0216 252.1135 13.15553903131361
ONEWEB-0247             
1 48777U 21045L   24026.54157408 -.00000158  00000+0 -45506-3 0  9991
2 48777  87.8966  72.9170 0003042 102.0842 258.0629 13.15550496129677
ONEWEB-0245             
1 48778U 21045M   24026.68894552 -.00000047  00000+0 -15832-3 0  9991
2 48778  87.8959  72.8863 0002038  87.5999 272.5364 13.15547271130791
ONEWEB-0229             
1 48779U 21045N   24026.68418077 -.00000082  00000+0 -25243-3 0  9992
2 48779  87.8959  72.8788 0002067  98.8316 261.3049 13.15546629130824
ONEWEB-0228             
1 48780U 21045P   24026.62317104 -.00000170  00000+0 -48556-3 0  9997
2 48780  87.8956  72.8697 0001978 100.5180 259.6173 13.15550403130735
ONEWEB-0232             
1 48781U 21045Q   24026.61604720 -.00000067  00000+0 -21214-3 0  9997
2 48781  87.8952  72.8989 0001925 100.4206 259.7141 13.15555465129924
ONEWEB-0231             
1 48782U 21045R   24026.59386592  .00000065  00000+0  13771-3 0  9994
2 48782  87.8970  72.9112 0002166  98.1150 262.0226 13.15547006129612
ONEWEB-0234             
1 48783U 21045S   24026.61366523 -.00000153  00000+0 -43935-3 0  9995
2 48783  87.8960  72.8774 0001328  45.6240 314.4999 13.15549460129751
ONEWEB-0238             
1 48784U 21045T   24026.56772920  .00000174  00000+0  42748-3 0  9994
2 48784  87.8961  72.9058 0001741  96.1119 264.0210 13.15548280129647
ONEWEB-0240             
1 48785U 21045U   24026.57723623  .00000198  00000+0  49138-3 0  9998
2 48785  87.8960  72.8720 0002258  89.3501 270.7888 13.15548732129675
ONEWEB-0246             
1 48786U 21045V   24026.64774502  .00000195  00000+0  48347-3 0  9997
2 48786  87.8962  72.8602 0002323  99.0895 261.0499 13.15547006130670
ONEWEB-0210             
1 48787U 21045W   24027.15479084 -.00000038  00000+0 -13492-3 0  9993
2 48787  87.8960  72.7660 0002500 111.9784 248.1612 13.15548037130791
ONEWEB-0214             
1 48788U 21045X   24026.17554736  .00000076  00000+0  16655-3 0  9997
2 48788  87.8960  72.9499 0002391 114.7169 245.4210 13.15549850129505
ONEWEB-0221             
1 48789U 21045Y   24027.17064347  .00000082  00000+0  18243-3 0  9995
2 48789  87.8961  72.7650 0002195  96.7471 263.3909 13.15548302130867
ONEWEB-0213             
1 48790U 21045Z   24026.62714571 -.00000011  00000+0 -63989-4 0  9999
2 48790  87.8960  72.8903 0002329  96.8737 263.2658 13.15547345130849
ONEWEB-0212             
1 48791U 21045AA  24027.13657497  .00000056  00000+0  11483-3 0  9998
2 48791  87.8962  72.7680 0001799  95.5652 264.5683 13.15549569130915
ONEWEB-0227             
1 48792U 21045AB  24026.60337113 -.00000042  00000+0 -14621-3 0  9994
2 48792  87.8963  72.8919 0001995  94.3478 265.7880 13.15546148129655
ONEWEB-0226             
1 48793U 21045AC  24026.59703503  .00000033  00000+0  52643-4 0  9998
2 48793  87.8961  72.9007 0002426 102.5276 257.6126 13.15546912129620
ONEWEB-0224             
1 48794U 21045AD  24026.56060862  .00000148  00000+0  35782-3 0  9991
2 48794  87.8964  72.9235 0002460  80.0486 280.0922 13.15547438129547
ONEWEB-0233             
1 48795U 21045AE  24027.16509578  .00000031  00000+0  48181-4 0  9990
2 48795  87.8962  72.8156 0002055 101.8458 258.2903 13.15549465130751
ONEWEB-0190             
1 48796U 21045AF  24026.17239204  .00000061  00000+0  12862-3 0  9996
2 48796  87.8966  72.9757 0003064  97.8997 262.2481 13.15548499129588
ONEWEB-0236             
1 48797U 21045AG  24026.64616376  .00000160  00000+0  39034-3 0  9998
2 48797  87.8968  72.8693 0001970  96.7068 263.4287 13.15549389130656
ONEWEB-0248             
1 48798U 21045AH  24026.58278634  .00000153  00000+0  37264-3 0  9998
2 48798  87.8961  72.8852 0002541  83.7071 276.4349 13.15547804129686
ONEWEB-0225             
1 48799U 21045AJ  24026.68101706 -.00000080  00000+0 -24786-3 0  9991
2 48799  87.8965  72.8710 0002403  93.0628 267.0777 13.15549195130849
ONEWEB-0215             
1 48800U 21045AK  24026.57485928  .00000210  00000+0  52446-3 0  9990
2 48800  87.8959  72.8744 0002783  87.4147 272.7302 13.15546547129568
ONEWEB-0216             
1 48801U 21045AL  24026.58435367  .00000167  00000+0  40959-3 0  9991
2 48801  87.8960  72.9116 0002028 106.5573 253.5780 13.15549715129571
ONEWEB-0239             
1 48802U 21045AM  24026.58912544  .00000101  00000+0  23332-3 0  9993
2 48802  87.8970  72.8737 0002695  84.9924 275.1514 13.15547617129619
ONEWEB-0249             
1 48967U 21060A   24026.53100405 -.00000036  00000+0 -12862-3 0  9997
2 48967  87.9040  42.4477 0001840  92.2703 267.8638 13.16593277126078
ONEWEB-0250             
1 48968U 21060B   24026.53576663 -.00000036  00000+0 -12723-3 0  9997
2 48968  87.9040  42.4313 0002111  86.5667 273.5706 13.16597226124767
ONEWEB-0252             
1 48970U 21060D   24026.56267198  .00000079  00000+0  17255-3 0  9993
2 48970  87.9039  42.4347 0001906  97.5554 262.5793 13.16592355124833
ONEWEB-0253             
1 48971U 21060E   24026.55157836  .00000105  00000+0  24190-3 0  9996
2 48971  87.9037  42.4522 0002203  93.4383 266.7000 13.16595715124765
ONEWEB-0254             
1 48972U 21060F   24026.56108337  .00000134  00000+0  31599-3 0  9993
2 48972  87.9038  42.4252 0002223  93.7898 266.3487 13.16594733126040
ONEWEB-0255             
1 48973U 21060G   24026.59908973 -.00000111  00000+0 -32344-3 0  9997
2 48973  87.9039  42.4528 0001881  90.3058 269.8289 13.16595942126139
ONEWEB-0256             
1 48974U 21060H   24026.54920358  .00000055  00000+0  10960-3 0  9999
2 48974  87.9041  42.4617 0001751  97.5924 262.5405 13.16595841126092
ONEWEB-0257             
1 48975U 21060J   24026.58168065  .00000061  00000+0  12571-3 0  9990
2 48975  87.9039  42.4297 0001950  99.0537 261.0815 13.16594040124763
ONEWEB-0258             
1 48976U 21060K   24027.11522821  .00000113  00000+0  26202-3 0  9999
2 48976  87.9040  42.3526 0001837  89.3554 270.7788 13.16593127126128
ONEWEB-0259             
1 48977U 21060L   24027.10889931  .00000053  00000+0  10452-3 0  9990
2 48977  87.9038  42.3388 0002003  83.7126 276.4233 13.16595718126161
ONEWEB-0260             
1 48978U 21060M   24026.57059288  .00000053  00000+0  10549-3 0  9992
2 48978  87.9038  42.4754 0001973 115.6840 244.4494 13.16591424124783
ONEWEB-0261             
1 48979U 21060N   24026.53733210 -.00000024  00000+0 -96177-4 0  9995
2 48979  87.9042  42.4713 0002458  96.6877 263.4534 13.16595318124839
ONEWEB-0262             
1 48980U 21060P   24027.05032573  .00000034  00000+0  54954-4 0  9995
2 48980  87.9040  42.3365 0002242  81.5638 278.5747 13.16594368126165
ONEWEB-0263             
1 48981U 21060Q   24026.55001306  .00000093  00000+0  20870-3 0  9994
2 48981  87.9041  42.4482 0002403  91.6992 268.4414 13.16594239124762
ONEWEB-0264             
1 48982U 21060R   24026.58721332  .00000034  00000+0  56518-4 0  9990
2 48982  87.9041  42.4539 0001896  92.1886 267.9462 13.16595565124770
ONEWEB-0266             
1 48984U 21060T   24026.60858295 -.00000038  00000+0 -13355-3 0  9991
2 48984  87.9038  42.4304 0001749  86.9728 273.1603 13.16593253124768
ONEWEB-0267             
1 48985U 21060U   24027.07565256  .00000014  00000+0  22022-5 0  9991
2 48985  87.9037  42.3386 0002231  97.3743 262.7642 13.16593067126129
ONEWEB-0268             
1 48986U 21060V   24026.58801468  .00000005  00000+0 -21550-4 0  9990
2 48986  87.9040  42.4416 0001886  97.3215 262.8130 13.16593862125033
